NORAD_CAT_ID,OBJECT_NAME,OBJECT_TYPE,EPOCH,MEAN_MOTION,ECCENTRICITY,INCLINATION,RA_OF_ASC_NODE,ARG_OF_PERICENTER,MEAN_ANOMALY,BSTAR,MEAN_MOTION_DOT,MEAN_MOTION_DDOT,TLE_LINE0,TLE_LINE1,TLE_LINE2,SEMIMAJOR_AXIS,PERIOD,APOGEE,PERIGEE,DECAYED
51987.0,STARLINK-3644,PAYLOAD,2023-07-18 00:00:58,15.08854862,9.21e-05,53.2159,54.2662,78.0197,282.0899,0.00039564,6.017e-05,0.0,0 STARLINK-3644,1 51987U 22025AH  23199.00067595  .00006017  00000-0  39564-3 0  9991,2 51987  53.2159  54.2662 0000921  78.0197 282.0899 15.08854862 76363,6917.835,95.437,540.337,539.063,0.0
51987.0,STARLINK-3644,PAYLOAD,2023-07-18 23:51:45,15.08842653,8.99e-05,53.2165,49.8053,88.9769,271.1326,0.00015866,2.238e-05,0.0,0 STARLINK-3644,1 51987U 22025AH  23199.99428081  .00002238  00000-0  15866-3 0  9990,2 51987  53.2165  49.8053 0000899  88.9769 271.1326 15.08842653 76519,6917.872,95.437,540.359,539.115,0.0
51987.0,STARLINK-3644,PAYLOAD,2023-07-19 17:21:01,15.08831181,0.0001136,53.2172,46.5329,106.9434,253.1682,-3.0692e-05,-7.76e-06,0.0,0 STARLINK-3644,1 51987U 22025AH  23200.72292859 -.00000776  00000-0 -30692-4 0  9998,2 51987  53.2172  46.5329 0001136 106.9434 253.1682 15.08831181 76623,6917.907,95.438,540.558,538.986,0.0
51987.0,STARLINK-3644,PAYLOAD,2023-07-20 15:36:24,15.08841431,8.31e-05,53.2171,42.3714,96.4969,263.6118,0.0001635,2.315e-05,0.0,0 STARLINK-3644,1 51987U 22025AH  23201.65028782  .00002315  00000-0  16350-3 0  9996,2 51987  53.2171  42.3714 0000831  96.4969 263.6118 15.08841431 76765,6917.876,95.437,540.316,539.166,0.0
51987.0,STARLINK-3644,PAYLOAD,2023-07-21 01:08:43,15.0885411,9.68e-05,53.2176,40.5864,105.6054,254.5045,0.00035961,5.442e-05,0.0,0 STARLINK-3644,1 51987U 22025AH  23202.04772171  .00005442  00000-0  35961-3 0  9991,2 51987  53.2176  40.5864 0000968 105.6054 254.5045 15.08854110 76828,6917.837,95.437,540.372,539.033,0.0
51987.0,STARLINK-3644,PAYLOAD,2023-07-21 15:27:11,15.08842331,7.57e-05,53.2171,37.9114,78.3495,281.7582,0.00010954,1.456e-05,0.0,0 STARLINK-3644,1 51987U 22025AH  23202.64388671  .00001456  00000-0  10954-3 0  9991,2 51987  53.2171  37.9114 0000757  78.3495 281.7582 15.08842331 76912,6917.873,95.437,540.262,539.215,0.0
51987.0,STARLINK-3644,PAYLOAD,2023-07-23 15:08:46,15.08829085,6.54e-05,53.2165,28.9892,91.4358,268.6709,-8.8871e-05,-1.701e-05,0.0,0 STARLINK-3644,1 51987U 22025AH  23204.63109023 -.00001701  00000-0 -88871-4 0  9993,2 51987  53.2165  28.9892 0000654  91.4358 268.6709 15.08829085 76127,6917.914,95.438,540.231,539.326,0.0
51987.0,STARLINK-3644,PAYLOAD,2023-07-25 11:39:34,15.0884707,7.5e-05,53.2172,20.6636,80.0319,280.0758,0.00027015,4.015e-05,0.0,0 STARLINK-3644,1 51987U 22025AH  23206.48581032  .00004015  00000-0  27015-3 0  9993,2 51987  53.2172  20.6636 0000750  80.0319 280.0758 15.08847070 76405,6917.859,95.437,540.243,539.205,0.0
51987.0,STARLINK-3644,PAYLOAD,2023-07-26 11:30:21,15.08845042,0.0001102,53.2178,16.2046,96.3465,263.7652,0.00047106,7.218e-05,0.0,0 STARLINK-3644,1 51987U 22025AH  23207.47941115  .00007218  00000-0  47106-3 0  9996,2 51987  53.2178  16.2046 0001102  96.3465 263.7652 15.08845042 76555,6917.865,95.437,540.492,538.968,0.0
51987.0,STARLINK-3644,PAYLOAD,2023-07-26 21:02:39,15.08855676,0.0001331,53.2193,14.423,93.6895,266.425,0.00044504,6.805e-05,0.0,0 STARLINK-3644,1 51987U 22025AH  23207.87684634  .00006805  00000-0  44504-3 0  9990,2 51987  53.2193  14.4230 0001331  93.6895 266.4250 15.08855676 76613,6917.832,95.437,540.618,538.777,0.0
51987.0,STARLINK-3644,PAYLOAD,2023-07-27 11:21:08,15.08835614,8.92e-05,53.2177,11.7416,92.1451,267.9643,-1.7213e-05,-5.62e-06,0.0,0 STARLINK-3644,1 51987U 22025AH  23208.47301239 -.00000562  00000-0 -17213-4 0  9998,2 51987  53.2177  11.7416 0000892  92.1451 267.9643 15.08835614 77796,6917.894,95.438,540.376,539.142,0.0
51987.0,STARLINK-3644,PAYLOAD,2023-07-27 12:56:31,15.08836693,0.0001086,53.2171,11.4473,89.0582,271.0535,3.0801e-05,2.02e-06,0.0,0 STARLINK-3644,1 51987U 22025AH  23208.53925344  .00000202  00000-0  30801-4 0  9991,2 51987  53.2171  11.4473 0001086  89.0582 271.0535 15.08836693 76711,6917.89,95.438,540.507,539.004,0.0
51987.0,STARLINK-3644,PAYLOAD,2023-07-27 20:53:27,15.08834687,8.62e-05,53.2176,9.9587,96.8862,263.2229,1.9333e-05,2e-07,0.0,0 STARLINK-3644,1 51987U 22025AH  23208.87045450  .00000020  00000-0  19333-4 0  9994,2 51987  53.2176   9.9587 0000862  96.8862 263.2229 15.08834687 76761,6917.897,95.438,540.358,539.165,0.0
51987.0,STARLINK-3644,PAYLOAD,2023-07-28 12:47:18,15.08839354,7.83e-05,53.2168,6.9845,89.3579,270.7503,8.5867e-05,1.079e-05,0.0,0 STARLINK-3644,1 51987U 22025AH  23209.53285574  .00001079  00000-0  85867-4 0  9991,2 51987  53.2168   6.9845 0000783  89.3579 270.7503 15.08839354 76865,6917.882,95.438,540.289,539.206,0.0
51987.0,STARLINK-3644,PAYLOAD,2023-07-28 17:33:27,15.08845163,8.83e-05,53.2173,6.0934,97.4181,262.6912,0.00023593,3.47e-05,0.0,0 STARLINK-3644,1 51987U 22025AH  23209.73157402  .00003470  00000-0  23593-3 0  9995,2 51987  53.2173   6.0934 0000883  97.4181 262.6912 15.08845163 77984,6917.865,95.437,540.34,539.119,0.0
51987.0,STARLINK-3644,PAYLOAD,2023-07-29 15:48:52,15.08844177,0.000107,53.2187,1.9321,105.1182,254.9929,0.0002275,3.335e-05,0.0,0 STARLINK-3644,1 51987U 22025AH  23210.65893546  .00003335  00000-0  22750-3 0  9998,2 51987  53.2187   1.9321 0001070 105.1182 254.9929 15.08844177 78123,6917.868,95.437,540.473,538.992,0.0
51987.0,STARLINK-3644,PAYLOAD,2023-07-30 09:18:06,15.08840267,8.29e-05,53.2176,358.6595,104.7346,255.3738,6.8871e-05,8.09e-06,0.0,0 STARLINK-3644,1 51987U 22025AH  23211.38757619  .00000809  00000-0  68871-4 0  9997,2 51987  53.2176 358.6595 0000829 104.7346 255.3738 15.08840267 78235,6917.88,95.438,540.318,539.171,0.0
51987.0,STARLINK-3644,PAYLOAD,2023-07-31 17:05:49,15.08842821,9.55e-05,53.2179,352.7125,82.4132,277.6968,5.8536e-05,6.44e-06,0.0,0 STARLINK-3644,1 51987U 22025AH  23212.71237628  .00000644  00000-0  58536-4 0  9992,2 51987  53.2179 352.7125 0000955  82.4132 277.6968 15.08842821 78439,6917.872,95.437,540.397,539.076,0.0
51987.0,STARLINK-3644,PAYLOAD,2023-08-02 15:12:00,15.08844996,9.99e-05,53.2184,344.0899,92.1306,267.98,0.00016554,2.348e-05,0.0,0 STARLINK-3644,1 51987U 22025AH  23214.63333593  .00002348  00000-0  16554-3 0  9999,2 51987  53.2184 344.0899 0000999  92.1306 267.9800 15.08844996 78720,6917.865,95.437,540.421,539.039,0.0
51987.0,STARLINK-3644,PAYLOAD,2023-08-02 18:22:45,15.08859135,9.32e-05,53.2179,343.4953,90.206,269.9039,6.2872e-05,7.13e-06,0.0,0 STARLINK-3644,1 51987U 22025AH  23214.76580797  .00000713  00000-0  62872-4 0  9992,2 51987  53.2179 343.4953 0000932  90.2060 269.9039 15.08859135 78740,6917.822,95.436,540.332,539.042,0.0
51987.0,STARLINK-3644,PAYLOAD,2023-08-03 15:02:47,15.08845792,0.0001034,53.2187,339.6293,105.2398,254.8708,0.00013576,1.874e-05,0.0,0 STARLINK-3644,1 51987U 22025AH  23215.62693395  .00001874  00000-0  13576-3 0  9992,2 51987  53.2187 339.6293 0001034 105.2398 254.8708 15.08845792 78872,6917.863,95.437,540.443,539.012,0.0
51987.0,STARLINK-3644,PAYLOAD,2023-08-04 08:32:02,15.0883378,8.82e-05,53.2172,336.3571,95.6619,264.4474,-0.00013054,-2.364e-05,0.0,0 STARLINK-3644,1 51987U 22025AH  23216.35557939 -.00002364  00000-0 -13054-3 0  9994,2 51987  53.2172 336.3571 0000882  95.6619 264.4474 15.08833780 78980,6917.899,95.438,540.375,539.154,0.0
51987.0,STARLINK-3644,PAYLOAD,2023-08-04 19:39:43,15.08842792,9.99e-05,53.2174,334.2741,104.311,255.7993,2.7201e-05,1.45e-06,0.0,0 STARLINK-3644,1 51987U 22025AH  23216.81925524  .00000145  00000-0  27201-4 0  9997,2 51987  53.2174 334.2741 0000999 104.3110 255.7993 15.08842792 79052,6917.872,95.437,540.428,539.046,0.0
51987.0,STARLINK-3644,PAYLOAD,2023-08-05 14:44:20,15.08859425,0.0001013,53.2181,330.7079,100.2545,259.8561,0.00028902,4.317e-05,0.0,0 STARLINK-3644,1 51987U 22025AH  23217.61412831  .00004317  00000-0  28902-3 0  9991,2 51987  53.2181 330.7079 0001013 100.2545 259.8561 15.08859425 79170,6917.821,95.436,540.387,538.985,0.0
51987.0,STARLINK-3644,PAYLOAD,2023-08-06 00:16:40,15.0881376,9.2e-05,53.2179,328.9236,116.4716,243.637,-0.0004848,-7.989e-05,0.0,0 STARLINK-3644,1 51987U 22025AH  23218.01158447 -.00007989  00000-0 -48480-3 0  9999,2 51987  53.2179 328.9236 0000920 116.4716 243.6370 15.08813760 79234,6917.961,95.439,540.462,539.189,0.0
51987.0,STARLINK-3644,PAYLOAD,2023-08-06 17:45:55,15.08823163,0.0001043,53.2176,325.653,125.8002,234.3087,-4.671e-05,-1.031e-05,0.0,0 STARLINK-3644,1 51987U 22025AH  23218.74022910 -.00001031  00000-0 -46710-4 0  9991,2 51987  53.2176 325.6530 0001043 125.8002 234.3087 15.08823163 79343,6917.932,95.439,540.518,539.075,0.0
51987.0,STARLINK-3644,PAYLOAD,2023-08-07 19:12:06,15.08855272,9.25e-05,53.217,320.8969,113.0181,247.0909,0.0010829,0.00016996,0.0,0 STARLINK-3644,1 51987U 22025AH  23219.80007476  .00016996  00000-0  10829-2 0  9993,2 51987  53.2170 320.8969 0000925 113.0181 247.0909 15.08855272 79503,6917.834,95.437,540.339,539.059,0.0
51987.0,STARLINK-3644,PAYLOAD,2023-08-08 06:19:48,15.08860524,8.56e-05,53.2159,318.8152,100.7796,259.3293,0.00099073,0.00015524,0.0,0 STARLINK-3644,1 51987U 22025AH  23220.26375281  .00015524  00000-0  99073-3 0  9992,2 51987  53.2159 318.8152 0000856 100.7796 259.3293 15.08860524 79574,6917.818,95.436,540.275,539.09,0.0
51987.0,STARLINK-3644,PAYLOAD,2023-08-09 06:10:35,15.08846958,0.0001199,53.2155,314.3529,91.1733,268.9396,0.00064469,9.989e-05,0.0,0 STARLINK-3644,1 51987U 22025AH  23221.25735033  .00009989  00000-0  64469-3 0  9996,2 51987  53.2155 314.3529 0001199  91.1733 268.9396 15.08846958 79726,6917.859,95.437,540.554,538.895,0.0
51987.0,STARLINK-3644,PAYLOAD,2023-08-09 12:32:07,15.08842607,8.18e-05,53.2159,313.1646,66.8894,293.2185,0.00020025,2.901e-05,0.0,0 STARLINK-3644,1 51987U 22025AH  23221.52231055  .00002901  00000-0  20025-3 0  9998,2 51987  53.2159 313.1646 0000818  66.8894 293.2185 15.08842607 79769,6917.872,95.437,540.303,539.172,0.0
